NORAD_CAT_ID,OBJECT_NAME,OBJECT_TYPE,EPOCH,MEAN_MOTION,ECCENTRICITY,INCLINATION,RA_OF_ASC_NODE,ARG_OF_PERICENTER,MEAN_ANOMALY,BSTAR,MEAN_MOTION_DOT,MEAN_MOTION_DDOT,TLE_LINE0,TLE_LINE1,TLE_LINE2,SEMIMAJOR_AXIS,PERIOD,APOGEE,PERIGEE,DECAYED
53899.0,STARLINK-5042,PAYLOAD,2024-07-31 15:14:17,15.08843078,0.0001515,53.2161,74.7842,90.8751,269.2415,0.00015545,2.187e-05,0.0,0 STARLINK-5042,1 53899U 22119P   24213.63492238  .00002187  00000-0  15545-3 0  9999,2 53899  53.2161  74.7842 0001515  90.8751 269.2415 15.08843078103218,6917.871,95.437,540.784,538.688,0.0
53899.0,STARLINK-5042,PAYLOAD,2024-07-31 21:35:50,15.08834301,0.0001348,53.2174,73.5921,98.7293,261.3852,-3.1928e-05,-7.96e-06,0.0,0 STARLINK-5042,1 53899U 22119P   24213.89988624 -.00000796  00000-0 -31928-4 0  9996,2 53899  53.2174  73.5921 0001348  98.7293 261.3852 15.08834301102833,6917.898,95.438,540.695,538.83,0.0
53899.0,STARLINK-5042,PAYLOAD,2024-08-01 13:29:41,15.08842289,0.0001028,53.2183,70.6249,95.5431,264.5678,0.00032309,4.858e-05,0.0,0 STARLINK-5042,1 53899U 22119P   24214.56229078  .00004858  00000-0  32309-3 0  9996,2 53899  53.2183  70.6249 0001028  95.5431 264.5678 15.08842289103351,6917.873,95.437,540.45,539.027,0.0
53899.0,STARLINK-5042,PAYLOAD,2024-08-01 21:26:38,15.08814006,9.32e-05,53.2161,69.1305,81.8143,278.2955,-0.00025456,-4.334e-05,0.0,0 STARLINK-5042,1 53899U 22119P   24214.89350056 -.00004334  00000-0 -25456-3 0  9999,2 53899  53.2161  69.1305 0000932  81.8143 278.2955 15.08814006102988,6917.96,95.439,540.47,539.18,0.0
53899.0,STARLINK-5042,PAYLOAD,2024-08-02 14:55:53,15.08833808,9.78e-05,53.2178,65.864,96.5724,263.538,0.00042376,6.462e-05,0.0,0 STARLINK-5042,1 53899U 22119P   24215.62214652  .00006462  00000-0  42376-3 0  9994,2 53899  53.2178  65.8640 0000978  96.5724 263.5380 15.08833808103519,6917.899,95.438,540.441,539.088,0.0
53899.0,STARLINK-5042,PAYLOAD,2024-08-02 21:17:25,15.08851629,6.6e-05,53.215,64.6725,66.9254,293.1807,0.0012062,0.00018967,0.0,0 STARLINK-5042,1 53899U 22119P   24215.88710587  .00018967  00000-0  12062-2 0  9991,2 53899  53.2150  64.6725 0000660  66.9254 293.1807 15.08851629103139,6917.845,95.437,540.166,539.253,0.0
53899.0,STARLINK-5042,PAYLOAD,2024-08-03 06:49:44,15.08880468,5.68e-05,53.2147,62.8884,67.2509,292.8543,0.0017721,0.00028059,0.0,0 STARLINK-5042,1 53899U 22119P   24216.28453952  .00028059  00000-0  17721-2 0  9996,2 53899  53.2147  62.8884 0000568  67.2509 292.8543 15.08880468103197,6917.757,95.435,540.015,539.229,0.0
53899.0,STARLINK-5042,PAYLOAD,2024-08-03 21:08:11,15.08874283,9.78e-05,53.2173,60.2168,96.0252,264.0851,0.00071445,0.00011111,0.0,0 STARLINK-5042,1 53899U 22119P   24216.88069122  .00011111  00000-0  71445-3 0  9999,2 53899  53.2173  60.2168 0000978  96.0252 264.0851 15.08874283103284,6917.776,95.435,540.317,538.964,0.0
53899.0,STARLINK-5042,PAYLOAD,2024-08-04 13:02:01,15.08887688,9.01e-05,53.2153,57.2392,88.5473,271.5622,0.0013211,0.00020827,0.0,0 STARLINK-5042,1 53899U 22119P   24217.54307137  .00020827  00000-0  13211-2 0  9994,2 53899  53.2153  57.2392 0000901  88.5473 271.5622 15.08887688103804,6917.735,95.435,540.223,538.976,0.0
53899.0,STARLINK-5042,PAYLOAD,2024-08-04 20:58:57,15.08846337,0.0001072,53.2167,55.7529,86.6851,273.4263,-0.0010115,-0.00016352,0.0,0 STARLINK-5042,1 53899U 22119P   24217.87427238 -.00016352  00000-0 -10115-2 0  9995,2 53899  53.2167  55.7529 0001072  86.6851 273.4263 15.08846337103430,6917.861,95.437,540.468,538.984,0.0
53899.0,STARLINK-5042,PAYLOAD,2024-08-05 19:14:22,15.08822168,0.000124,53.2171,51.5849,97.6995,262.4138,-0.00052871,-8.688e-05,0.0,0 STARLINK-5042,1 53899U 22119P   24218.80164681 -.00008688  00000-0 -52871-3 0  9998,2 53899  53.2171  51.5849 0001240  97.6995 262.4138 15.08822168103998,6917.935,95.439,540.658,538.942,0.0
53899.0,STARLINK-5042,PAYLOAD,2024-08-06 04:46:41,15.0883526,0.0001347,53.2183,49.7988,102.4517,257.6626,-8.3973e-05,-1.624e-05,0.0,0 STARLINK-5042,1 53899U 22119P   24219.19908744 -.00001624  00000-0 -83973-4 0  9998,2 53899  53.2183  49.7988 0001347 102.4517 257.6626 15.08835260103633,6917.895,95.438,540.692,538.828,0.0
53899.0,STARLINK-5042,PAYLOAD,2024-08-06 12:43:37,15.08830125,0.0001391,53.2179,48.3154,93.4505,266.6647,0.00060794,9.398e-05,0.0,0 STARLINK-5042,1 53899U 22119P   24219.53029742  .00009398  00000-0  60794-3 0  9997,2 53899  53.2179  48.3154 0001391  93.4505 266.6647 15.08830125103686,6917.911,95.438,540.738,538.813,0.0
53899.0,STARLINK-5042,PAYLOAD,2024-08-06 19:05:10,15.08845859,0.0001297,53.2162,47.1277,89.7352,270.3789,0.0011332,0.00017796,0.0,0 STARLINK-5042,1 53899U 22119P   24219.79525721  .00017796  00000-0  11332-2 0  9997,2 53899  53.2162  47.1277 0001297  89.7352 270.3789 15.08845859104145,6917.862,95.437,540.625,538.83,0.0
53899.0,STARLINK-5042,PAYLOAD,2024-08-07 17:20:33,15.08870367,0.0001123,53.2167,42.9666,75.1072,285.0044,0.00090865,0.00014215,0.0,0 STARLINK-5042,1 53899U 22119P   24220.72260596  .00014215  00000-0  90865-3 0  9990,2 53899  53.2167  42.9666 0001123  75.1072 285.0044 15.08870367104285,6917.788,95.436,540.429,538.876,0.0
53899.0,STARLINK-5042,PAYLOAD,2024-08-08 17:11:19,15.08833566,0.0001234,53.2175,38.5055,59.3308,300.7806,-0.00029483,-4.976e-05,0.0,0 STARLINK-5042,1 53899U 22119P   24221.71620264 -.00004976  00000-0 -29483-3 0  9995,2 53899  53.2175  38.5055 0001234  59.3308 300.7806 15.08833566104018,6917.9,95.438,540.619,538.911,0.0
53899.0,STARLINK-5042,PAYLOAD,2024-08-09 12:15:58,15.08836291,0.0002435,53.2172,34.936,84.1329,275.994,0.00065486,0.00010148,0.0,0 STARLINK-5042,1 53899U 22119P   24222.51108959  .00010148  00000-0  65486-3 0  9995,2 53899  53.2172  34.9360 0002435  84.1329 275.9940 15.08836291104556,6917.892,95.438,541.441,538.072,0.0
53899.0,STARLINK-5042,PAYLOAD,2024-08-09 18:37:30,15.08839949,0.0001197,53.2174,33.7486,98.5461,261.5667,0.00039636,6.026e-05,0.0,0 STARLINK-5042,1 53899U 22119P   24222.77604825  .00006026  00000-0  39636-3 0  9994,2 53899  53.2174  33.7486 0001197  98.5461 261.5667 15.08839949104172,6917.881,95.438,540.574,538.917,0.0
53899.0,STARLINK-5042,PAYLOAD,2024-08-10 20:03:40,15.08807893,0.0001322,53.2174,28.9889,100.3571,259.757,-0.00092503,-0.00014966,0.0,0 STARLINK-5042,1 53899U 22119P   24223.83588102 -.00014966  00000-0 -92503-3 0  9997,2 53899  53.2174  28.9889 0001322 100.3571 259.7570 15.08807893104332,6917.979,95.44,540.758,538.929,0.0
53899.0,STARLINK-5042,PAYLOAD,2024-08-11 04:00:36,15.08814161,0.0001254,53.2169,27.5019,96.3431,263.7704,0.0010955,0.00017178,0.0,0 STARLINK-5042,1 53899U 22119P   24224.16709147  .00017178  00000-0  10955-2 0  9994,2 53899  53.2169  27.5019 0001254  96.3431 263.7704 15.08814161104384,6917.959,95.439,540.692,538.957,0.0
53899.0,STARLINK-5042,PAYLOAD,2024-08-11 19:54:28,15.08857941,0.0001182,53.2167,24.5299,84.1125,276.0002,0.0022917,0.00036391,0.0,0 STARLINK-5042,1 53899U 22119P   24224.82949696  .00036391  00000-0  22917-2 0  9991,2 53899  53.2167  24.5299 0001182  84.1125 276.0002 15.08857941104486,6917.826,95.436,540.508,538.873,0.0
53899.0,STARLINK-5042,PAYLOAD,2024-08-12 10:12:56,15.08862319,0.0002571,53.2159,21.8541,105.1874,254.9402,0.00214,0.00033956,0.0,0 STARLINK-5042,1 53899U 22119P   24225.42565849  .00033956  00000-0  21400-2 0  9992,2 53899  53.2159  21.8541 0002571 105.1874 254.9402 15.08862319104579,6917.812,95.436,541.456,537.899,0.0
53899.0,STARLINK-5042,PAYLOAD,2024-08-12 19:45:15,15.08874211,0.0001381,53.2172,20.0673,108.5867,251.5276,0.0023229,0.0003691,0.0,0 STARLINK-5042,1 53899U 22119P   24225.82309427  .00036910  00000-0  23229-2 0  9998,2 53899  53.2172  20.0673 0001381 108.5867 251.5276 15.08874211105058,6917.776,95.435,540.596,538.685,0.0
53899.0,STARLINK-5042,PAYLOAD,2024-08-13 03:42:10,15.08878066,0.0001368,53.2175,18.584,87.0497,273.0652,0.00092001,0.00014399,0.0,0 STARLINK-5042,1 53899U 22119P   24226.15428552  .00014399  00000-0  92001-3 0  9998,2 53899  53.2175  18.5840 0001368  87.0497 273.0652 15.08878066104681,6917.764,95.435,540.575,538.683,0.0
53899.0,STARLINK-5042,PAYLOAD,2024-08-13 10:03:42,15.08879306,0.0003877,53.2015,17.3896,87.3772,272.7664,0.0010885,0.00017098,0.0,0 STARLINK-5042,1 53899U 22119P   24226.41924724  .00017098  00000-0  10885-2 0  9997,2 53899  53.2015  17.3896 0003877  87.3772 272.7664 15.08879306105147,6917.76,95.435,542.307,536.943,0.0
53899.0,STARLINK-5042,PAYLOAD,2024-08-13 18:00:38,15.08843696,0.0001491,53.2149,15.9054,94.4925,265.6238,-8.0008e-05,-1.561e-05,0.0,0 STARLINK-5042,1 53899U 22119P   24226.75044841 -.00001561  00000-0 -80008-4 0  9993,2 53899  53.2149  15.9054 0001491  94.4925 265.6238 15.08843696104773,6917.869,95.437,540.766,538.703,0.0
53899.0,STARLINK-5042,PAYLOAD,2024-08-14 14:40:39,15.08842464,0.0002228,53.2145,12.0339,125.5627,234.5573,6.943e-05,8.17e-06,0.0,0 STARLINK-5042,1 53899U 22119P   24227.61156864  .00000817  00000-0  69430-4 0  9995,2 53899  53.2145  12.0339 0002228 125.5627 234.5573 15.08842464105328,6917.873,95.437,541.279,538.197,0.0
53899.0,STARLINK-5042,PAYLOAD,2024-08-14 16:16:02,15.08838014,0.0001543,53.2177,11.7432,97.6333,262.4834,1.7366e-05,-1.2e-07,0.0,0 STARLINK-5042,1 53899U 22119P   24227.67781078 -.00000012  00000-0  17366-4 0  9991,2 53899  53.2177  11.7432 0001543  97.6333 262.4834 15.08838014105332,6917.886,95.438,540.819,538.684,0.0
53899.0,STARLINK-5042,PAYLOAD,2024-08-15 16:06:50,15.0883665,0.0001331,53.2169,7.2844,80.4292,279.6851,0.00032394,4.871e-05,0.0,0 STARLINK-5042,1 53899U 22119P   24228.67141884  .00004871  00000-0  32394-3 0  9990,2 53899  53.2169   7.2844 0001331  80.4292 279.6851 15.08836650105062,6917.891,95.438,540.676,538.835,0.0
53899.0,STARLINK-5042,PAYLOAD,2024-08-18 12:28:26,15.08838608,0.000135,53.2172,354.4951,75.1468,284.9674,0.00011833,1.596e-05,0.0,0 STARLINK-5042,1 53899U 22119P   24231.51974801  .00001596  00000-0  11833-3 0  9996,2 53899  53.2172 354.4951 0001350  75.1468 284.9674 15.08838608105493,6917.885,95.438,540.684,538.816,0.0
